{
    "links": {
        "self": "http://www.neowsapp.com/rest/v1/neo/54051161?api_key=iIulBulltgU6a56xZRHN4H3l9WmuAYTsLGpBGhQ2"
    },
    "id": "54051161",
    "neo_reference_id": "54051161",
    "name": "(2020 PE6)",
    "designation": "2020 PE6",
    "nasa_jpl_url": "http://ssd.jpl.nasa.gov/sbdb.cgi?sstr=54051161",
    "absolute_magnitude_h": 22.817,
    "estimated_diameter": {
        "kilometers": {
            "estimated_diameter_min": 0.0726365112,
            "estimated_diameter_max": 0.1624201768
        },
        "meters": {
            "estimated_diameter_min": 72.6365112277,
            "estimated_diameter_max": 162.4201767535
        },
        "miles": {
            "estimated_diameter_min": 0.0451342216,
            "estimated_diameter_max": 0.1009231876
        },
        "feet": {
            "estimated_diameter_min": 238.3087714962,
            "estimated_diameter_max": 532.8746127
        }
    },
    "is_potentially_hazardous_asteroid": false,
    "close_approach_data": [
        {
            "close_approach_date": "2020-08-31",
            "close_approach_date_full": "2020-Aug-31 10:50",
            "epoch_date_close_approach": 1598871000000,
            "relative_velocity": {
                "kilometers_per_second": "16.7166232071",
                "kilometers_per_hour": "60179.8435456748",
                "miles_per_hour": "37393.4144520333"
            },
            "miss_distance": {
                "astronomical": "0.2016804208",
                "lunar": "78.4536836912",
                "kilometers": "30170961.372383696",
                "miles": "18747366.0698831648"
            },
            "orbiting_body": "Earth"
        },
        {
            "close_approach_date": "2021-02-10",
            "close_approach_date_full": "2021-Feb-10 02:50",
            "epoch_date_close_approach": 1612925400000,
            "relative_velocity": {
                "kilometers_per_second": "14.1228586554",
                "kilometers_per_hour": "50842.2911596153",
                "miles_per_hour": "31591.4225263732"
            },
            "miss_distance": {
                "astronomical": "0.3127157572",
                "lunar": "121.6464295508",
                "kilometers": "46781611.192557164",
                "miles": "29068745.2594263032"
            },
            "orbiting_body": "Earth"
        }
    ],
    "orbital_data": {
        "orbit_id": "2",
        "orbit_determination_date": "2020-08-19 07:55:03",
        "first_observation_date": "2020-08-14",
        "last_observation_date": "2020-08-18",
        "data_arc_in_days": 4,
        "observations_used": 16,
        "orbit_uncertainty": "8",
        "minimum_orbit_intersection": ".178331",
        "jupiter_tisserand_invariant": "4.701",
        "epoch_osculation": "2459077.5",
        "eccentricity": ".2967377795000428",
        "semi_major_axis": "1.356608430082931",
        "inclination": "27.45783982722103",
        "ascending_node_longitude": "149.3589921972381",
        "orbital_period": "577.1386963013156",
        "perihelion_distance": ".9540514568890833",
        "perihelion_argument": "268.0447761700194",
        "aphelion_distance": "1.759165403276779",
        "perihelion_time": "2459161.620329487451",
        "mean_anomaly": "307.5285251022713",
        "mean_motion": ".6237668732093634",
        "equinox": "J2000",
        "orbit_class": {
            "orbit_class_type": "APO",
            "orbit_class_description": "Near-Earth asteroid orbits which cross the Earth’s orbit similar to that of 1862 Apollo",
            "orbit_class_range": "a (semi-major axis) > 1.0 AU; q (perihelion) < 1.017 AU"
        }
    },
    "is_sentry_object": false
}